{"fetched_at":"2026-03-29T16:36:15Z","count":15609,"tles":[{"name":"STARLINK-2588","line1":"1 48398U 21038AX  26087.73533516  .00016404  00000+0  85705-3 0  9994","line2":"2 48398  53.0734 252.2026 0004429 170.2634 189.8446 15.16030856271451","category":"Starlink"}]}