{
  "norad_id": 48398,
  "name": "STARLINK-2588",
  "history": [
    {
      "epoch": "2026-03-28T17:38:52.957824Z",
      "apogee_km": 520.9050448454182,
      "perigee_km": 514.7964409829901,
      "latitude_deg": 7.869914909817234e-08,
      "longitude_deg": 161.3304271902058,
      "height_km": 521.744968729371,
      "semi_major_axis_km": 6895.987742914203,
      "eccentricity": 0.00044291,
      "inclination_deg": 53.0734,
      "raan_deg": 252.2026,
      "arg_perigee_deg": 170.2634,
      "mean_anomaly_deg": 189.8446,
      "mean_motion_rev_day": 15.16030856
    }
  ]
}